[
    {
        "Altitude(m)": 605459.050238372,
        "Argument of Periapsis(deg)": 0.0,
        "Eccentricity": 0.0,
        "Inclination(deg)": 60.0,
        "Latitude(deg)": 27.98828361725433,
        "Longitude(deg)": 157.79863128320073,
        "Mean Anomaly(deg)": 32.72730000000001,
        "RAAN(deg)": 240.0,
        "Satellite Name": "Test1 1058",
        "Satellite Number": 1058,
        "Semi-Major Axis(m)": 6980739.136638005,
        "Time(s)": 0
    },
    {
        "Altitude(m)": 605535.8413419364,
        "Argument of Periapsis(deg)": 0.00010418945913296404,
        "Eccentricity": 0.0,
        "Inclination(deg)": 60.0,
        "Latitude(deg)": 28.501412568204444,
        "Longitude(deg)": 158.15557760298313,
        "Mean Anomaly(deg)": 33.34740614546182,
        "RAAN(deg)": 239.99957995086024,
        "Satellite Name": "Test1 1058",
        "Satellite Number": 1058,
        "Semi-Major Axis(m)": 6980739.136638005,
        "Time(s)": 10
    },
    {
        "Altitude(m)": 605614.3230490771,
        "Argument of Periapsis(deg)": 0.0002083789182659281,
        "Eccentricity": 0.0,
        "Inclination(deg)": 60.0,
        "Latitude(deg)": 29.013323986157015,
        "Longitude(deg)": 158.5163887800241,
        "Mean Anomaly(deg)": 33.967512290923665,
        "RAAN(deg)": 239.99915990172047,
        "Satellite Name": "Test1 1058",
        "Satellite Number": 1058,
        "Semi-Major Axis(m)": 6980739.136638005,
        "Time(s)": 20
    },
    {
        "Altitude(m)": 605694.437667612,
        "Argument of Periapsis(deg)": 0.00031256837739889213,
        "Eccentricity": 0.0,
        "Inclination(deg)": 60.0,
        "Latitude(deg)": 29.523980597935644,
        "Longitude(deg)": 158.8811765706706,
        "Mean Anomaly(deg)": 34.58761843638547,
        "RAAN(deg)": 239.99873985258077,
        "Satellite Name": "Test1 1058",
        "Satellite Number": 1058,
        "Semi-Major Axis(m)": 6980739.136638005,
        "Time(s)": 30
    },
    {
        "Altitude(m)": 605776.1268960161,
        "Argument of Periapsis(deg)": 0.0004167578365318562,
        "Eccentricity": 0.0,
        "Inclination(deg)": 60.0,
        "Latitude(deg)": 30.03334413388312,
        "Longitude(deg)": 159.25005573757923,
        "Mean Anomaly(deg)": 35.20772458184732,
        "RAAN(deg)": 239.99831980344103,
        "Satellite Name": "Test1 1058",
        "Satellite Number": 1058,
        "Semi-Major Axis(m)": 6980739.136638005,
        "Time(s)": 40
    },
    {
        "Altitude(m)": 605859.3318537622,
        "Argument of Periapsis(deg)": 0.0005209472956648203,
        "Eccentricity": 0.0,
        "Inclination(deg)": 60.0,
        "Latitude(deg)": 30.54137528912794,
        "Longitude(deg)": 159.6231431085313,
        "Mean Anomaly(deg)": 35.82783072730913,
        "RAAN(deg)": 239.99789975430127,
        "Satellite Name": "Test1 1058",
        "Satellite Number": 1058,
        "Semi-Major Axis(m)": 6980739.136638005,
        "Time(s)": 50
    },
    {
        "Altitude(m)": 605943.993111902,
        "Argument of Periapsis(deg)": 0.0006251367547977843,
        "Eccentricity": 0.0,
        "Inclination(deg)": 60.0,
        "Latitude(deg)": 31.04803368349134,
        "Longitude(deg)": 160.0005581482959,
        "Mean Anomaly(deg)": 36.447936872770974,
        "RAAN(deg)": 239.9974797051615,
        "Satellite Name": "Test1 1058",
        "Satellite Number": 1058,
        "Semi-Major Axis(m)": 6980739.136638005,
        "Time(s)": 60
    },
    {
        "Altitude(m)": 606030.050723883,
        "Argument of Periapsis(deg)": 0.0007293262139307483,
        "Eccentricity": 0.0,
        "Inclination(deg)": 60.0,
        "Latitude(deg)": 31.553277819995007,
        "Longitude(deg)": 160.38242353050458,
        "Mean Anomaly(deg)": 37.06804301823283,
        "RAAN(deg)": 239.9970596560218,
        "Satellite Name": "Test1 1058",
        "Satellite Number": 1058,
        "Semi-Major Axis(m)": 6980739.136638005,
        "Time(s)": 70
    },
    {
        "Altitude(m)": 606117.444256531,
        "Argument of Periapsis(deg)": 0.0008335156730637124,
        "Eccentricity": 0.0,
        "Inclination(deg)": 60.0,
        "Latitude(deg)": 32.057065041933285,
        "Longitude(deg)": 160.7688641964785,
        "Mean Anomaly(deg)": 37.68814916369463,
        "RAAN(deg)": 239.99663960688207,
        "Satellite Name": "Test1 1058",
        "Satellite Number": 1058,
        "Semi-Major Axis(m)": 6980739.136638005,
        "Time(s)": 80
    },
    {
        "Altitude(m)": 606206.112821257,
        "Argument of Periapsis(deg)": 0.0009377051321966765,
        "Eccentricity": 0.0,
        "Inclination(deg)": 60.0,
        "Latitude(deg)": 32.55935148846474,
        "Longitude(deg)": 161.16000792654899,
        "Mean Anomaly(deg)": 38.308255309156486,
        "RAAN(deg)": 239.9962195577423,
        "Satellite Name": "Test1 1058",
        "Satellite Number": 1058,
        "Semi-Major Axis(m)": 6980739.136638005,
        "Time(s)": 90
    },
    {
        "Altitude(m)": 606295.9951054109,
        "Argument of Periapsis(deg)": 0.0010418945913296407,
        "Eccentricity": 0.0,
        "Inclination(deg)": 60.0,
        "Latitude(deg)": 33.06009204868651,
        "Longitude(deg)": 161.55598591076313,
        "Mean Anomaly(deg)": 38.92836145461828,
        "RAAN(deg)": 239.99579950860254,
        "Satellite Name": "Test1 1058",
        "Satellite Number": 1058,
        "Semi-Major Axis(m)": 6980739.136638005,
        "Time(s)": 100
    },
    {
        "Altitude(m)": 606387.0294038006,
        "Argument of Periapsis(deg)": 0.0011460840504626045,
        "Eccentricity": 0.0,
        "Inclination(deg)": 60.0,
        "Latitude(deg)": 33.55924031415841,
        "Longitude(deg)": 161.95693180583842,
        "Mean Anomaly(deg)": 39.54846760008014,
        "RAAN(deg)": 239.99537945946284,
        "Satellite Name": "Test1 1058",
        "Satellite Number": 1058,
        "Semi-Major Axis(m)": 6980739.136638005,
        "Time(s)": 110
    },
    {
        "Altitude(m)": 606479.1536503569,
        "Argument of Periapsis(deg)": 0.0012502735095955685,
        "Eccentricity": 0.0,
        "Inclination(deg)": 60.0,
        "Latitude(deg)": 34.056748529833875,
        "Longitude(deg)": 162.36298230382224,
        "Mean Anomaly(deg)": 40.16857374554194,
        "RAAN(deg)": 239.9949594103231,
        "Satellite Name": "Test1 1058",
        "Satellite Number": 1058,
        "Semi-Major Axis(m)": 6980739.136638005,
        "Time(s)": 120
    },
    {
        "Altitude(m)": 606572.3054498895,
        "Argument of Periapsis(deg)": 0.0013544629687285324,
        "Eccentricity": 0.0,
        "Inclination(deg)": 60.0,
        "Latitude(deg)": 34.552567543369086,
        "Longitude(deg)": 162.774277699258,
        "Mean Anomaly(deg)": 40.788679891003795,
        "RAAN(deg)": 239.99453936118334,
        "Satellite Name": "Test1 1058",
        "Satellite Number": 1058,
        "Semi-Major Axis(m)": 6980739.136638005,
        "Time(s)": 130
    },
    {
        "Altitude(m)": 606666.4221099926,
        "Argument of Periapsis(deg)": 0.0014586524278614966,
        "Eccentricity": 0.0,
        "Inclination(deg)": 60.0,
        "Latitude(deg)": 35.046646752779594,
        "Longitude(deg)": 163.19096094161924,
        "Mean Anomaly(deg)": 41.40878603646564,
        "RAAN(deg)": 239.99411931204355,
        "Satellite Name": "Test1 1058",
        "Satellite Number": 1058,
        "Semi-Major Axis(m)": 6980739.136638005,
        "Time(s)": 140
    },
    {
        "Altitude(m)": 606761.4406730073,
        "Argument of Periapsis(deg)": 0.0015628418869944607,
        "Eccentricity": 0.0,
        "Inclination(deg)": 60.0,
        "Latitude(deg)": 35.53893405241287,
        "Longitude(deg)": 163.61317819836097,
        "Mean Anomaly(deg)": 42.02889218192745,
        "RAAN(deg)": 239.99369926290387,
        "Satellite Name": "Test1 1058",
        "Satellite Number": 1058,
        "Semi-Major Axis(m)": 6980739.136638005,
        "Time(s)": 150
    },
    {
        "Altitude(m)": 606857.2979480929,
        "Argument of Periapsis(deg)": 0.0016670313461274247,
        "Eccentricity": 0.0,
        "Inclination(deg)": 60.0,
        "Latitude(deg)": 36.0293757772143,
        "Longitude(deg)": 164.04107941526874,
        "Mean Anomaly(deg)": 42.6489983273893,
        "RAAN(deg)": 239.99327921376414,
        "Satellite Name": "Test1 1058",
        "Satellite Number": 1058,
        "Semi-Major Axis(m)": 6980739.136638005,
        "Time(s)": 160
    },
    {
        "Altitude(m)": 606953.9305433104,
        "Argument of Periapsis(deg)": 0.0017712208052603888,
        "Eccentricity": 0.0,
        "Inclination(deg)": 60.0,
        "Latitude(deg)": 36.51791664526859,
        "Longitude(deg)": 164.4748173607417,
        "Mean Anomaly(deg)": 43.269104472851105,
        "RAAN(deg)": 239.99285916462435,
        "Satellite Name": "Test1 1058",
        "Satellite Number": 1058,
        "Semi-Major Axis(m)": 6980739.136638005,
        "Time(s)": 170
    },
    {
        "Altitude(m)": 607051.274897814,
        "Argument of Periapsis(deg)": 0.001875410264393353,
        "Eccentricity": 0.0,
        "Inclination(deg)": 60.0,
        "Latitude(deg)": 37.0044996985973,
        "Longitude(deg)": 164.91454817921763,
        "Mean Anomaly(deg)": 43.88921061831296,
        "RAAN(deg)": 239.9924391154846,
        "Satellite Name": "Test1 1058",
        "Satellite Number": 1058,
        "Semi-Major Axis(m)": 6980739.136638005,
        "Time(s)": 180
    },
    {
        "Altitude(m)": 607149.2673139957,
        "Argument of Periapsis(deg)": 0.0019795997235263173,
        "Eccentricity": 0.0,
        "Inclination(deg)": 60.0,
        "Latitude(deg)": 37.48906624220449,
        "Longitude(deg)": 165.36043194027118,
        "Mean Anomaly(deg)": 44.50931676377476,
        "RAAN(deg)": 239.9920190663449,
        "Satellite Name": "Test1 1058",
        "Satellite Number": 1058,
        "Semi-Major Axis(m)": 6980739.136638005,
        "Time(s)": 190
    }
]